[Satellite]
VERSION=1.1
NAME=GSTAR 1
NICKNAME=GSTAR 1
TLE1=1 15677U 85035A   11057.97956052 -.00000116  00000-0  10000-3 0  3632
TLE2=2 15677  11.9701  43.6962 0009289 297.0880  62.8649  1.00272478 69190
